 Automated mail xmit by MAIL_REQUEST, PID=   3657 Sat Apr 12 04:59:53 2014
++++++++++++++++++++++++++++++++ (part 1 of 1)  
++++++++++++++++++++++++++++++++ +++++++++++++++++++++++++++++++

*******************************************************************************
 Revised: Dec 30, 2013             Mimas / (Saturn)                         601
                        http://ssd.jpl.nasa.gov/?sat_phys_par
                         http://ssd.jpl.nasa.gov/?sat_elem

 SATELLITE PHYSICAL PROPERTIES:
  Mean Radius (km)        = 198.8   +- 1.5   Density (g/cm^3)  = 1.152 +- 0.027
  Mass (10^22 g)          =   3.75           Geometric Albedo  = 0.6 
  GM (km^3/s^2)           =   2.503          V(1,0)            = +3.3

 SATELLITE ORBITAL DATA (mean elements referred to local Laplace plane):
  Semi-major axis, a (km) = 185.54(10^3)    Orbital period     = 0.9424218 d
  Eccentricity, e         = 0.0196          Rotational period  = Synchronous
  Inclination, i  (deg)   = 1.572
*******************************************************************************
 
 
*******************************************************************************
Ephemeris / MAIL_REQUEST Sat Apr 12 04:59:53 2014 Pasadena, USA  / Horizons    
*******************************************************************************
Target body name: Mimas (601)                     {source: SAT360}
Center body name: Sun (10)                        {source: DE-0431LE-0431}
Center-site name: BODY CENTER
*******************************************************************************
Start time      : A.D. 2013-Jan-01 10:00:00.0000 CT 
Stop  time      : A.D. 2014-Jan-01 10:00:00.0000 CT 
Step-size       : 2 steps
*******************************************************************************
Center geodetic : 0.00000000,0.00000000,0.0000000 {E-lon(deg),Lat(deg),Alt(km)} Center cylindric: 0.00000000,0.00000000,0.0000000 {E-lon(deg),Dxy(km),Dz(km)}
Center radii    : 696000.0 x 696000.0 x 696000.0 k{Equator, meridian, pole}    
Output units    : AU-D                                                         
Output format   : 03
Reference frame : ICRF/J2000.0                                                 
Output type     : GEOMETRIC cartesian states
Coordinate systm: Ecliptic and Mean Equinox of Reference Epoch                 
*******************************************************************************
JDCT ,   , X, Y, Z, VX, VY, VZ, LT, RG, RR,
*******************************************************************************
$$SOE
2456293.916666667, A.D. 2013-Jan-01 10:00:00.0000, -8.079359941384837E+00, -5.517647336209463E+00,  4.181434720292878E-01,  1.068379659975165E-02, -2.379830745870904E-03, -1.807548160714397E-03,  5.655743470372607E-02,  9.792616256773982E+00, -7.550891816779269E-03, 2456476.416666667, A.D. 2013-Jul-02 22:00:00.0000, -7.521774974846517E+00, -6.329052429536820E+00,  4.094196224288952E-01,  7.831193458147274E-04, -1.134391391140756E-02,  3.806220858618425E-03,  5.682406480553722E-02,  9.838781827811971E+00,  6.856958624684020E-03, 2456658.916666667, A.D. 2014-Jan-01 10:00:00.0000, -6.882680891650276E+00, -7.076490208396609E+00,  3.966959151732894E-01, -1.261610664148066E-03,  2.184569430438123E-03, -3.040501568529585E-03,  5.705948394933895E-02,  9.879543388990005E+00, -8.079295582053714E-04, $$EOE
*******************************************************************************
Coordinate system description:

  Ecliptic and Mean Equinox of Reference Epoch

    Reference epoch: J2000.0
    xy-plane: plane of the Earth's orbit at the reference epoch
    x-axis  : out along ascending node of instantaneous plane of the Earth's
              orbit and the Earth's mean equator at the reference epoch
    z-axis  : perpendicular to the xy-plane in the directional (+ or -) sense
              of Earth's north pole at the reference epoch.

Symbol meaning [1 au=149597870.700 km, 1 day=86400.0 s]:

    JDCT     Epoch Julian Date, Coordinate Time
      X      x-component of position vector (AU)                               
      Y      y-component of position vector (AU)                               
      Z      z-component of position vector (AU)                               
      VX     x-component of velocity vector (AU/day)                           
      VY     y-component of velocity vector (AU/day)                           
      VZ     z-component of velocity vector (AU/day)                           
      LT     One-way down-leg Newtonian light-time (day)                       
      RG     Range; distance from coordinate center (AU)                       
      RR     Range-rate; radial velocity wrt coord. center (AU/day)            

Geometric states/elements have no aberration corrections applied.

 Computations by ...
     Solar System Dynamics Group, Horizons On-Line Ephemeris System
     4800 Oak Grove Drive, Jet Propulsion Laboratory
     Pasadena, CA  91109   USA
     Information: http://ssd.jpl.nasa.gov/
     Connect    : telnet://ssd.jpl.nasa.gov:6775  (via browser)
                  telnet ssd.jpl.nasa.gov 6775    (via command-line)
     Author     : Jon.Giorgini@jpl.nasa.gov
*******************************************************************************
